OBJECT_NAME,OBJECT_ID,EPOCH,MEAN_MOTION,ECCENTRICITY,INCLINATION,RA_OF_ASC_NODE,ARG_OF_PERICENTER,MEAN_ANOMALY,EPHEMERIS_TYPE,CLASSIFICATION_TYPE,NORAD_CAT_ID,ELEMENT_SET_NO,REV_AT_EPOCH,BSTAR,MEAN_MOTION_DOT,MEAN_MOTION_DDOT
EYESAT A (AO-27),1993-061C,2026-06-19T17:26:44.635200,14.30942876,.00095446,98.6880,238.1396,93.2451,266.9824,0,U,22825,999,70736,.43199649E-4,.69E-6,0
ITAMSAT (IO-26),1993-061D,2026-06-19T16:56:00.411648,14.31369842,.00100159,98.6829,238.0360,78.3690,281.8617,0,U,22826,999,70767,.42305232E-4,.68E-6,0
RADIO ROSTO (RS15),1994-085A,2026-06-19T22:53:48.357024,11.27583495,.01560254,64.8186,298.7412,3.3633,356.8304,0,U,23439,999,29621,.34179807E-3,-.3E-6,0
JAS-2 (FO-29),1996-046B,2026-06-19T07:22:34.593312,13.53274520,.0350921,98.5238,18.8890,90.9460,273.1898,0,U,24278,999,47345,.19675932E-4,-.13E-6,0
FORTE,1997-047A,2026-06-19T18:09:38.849760,14.27946016,.00246336,69.9539,8.2172,274.2276,85.6031,0,U,24920,999,49905,.67422308E-4,.11E-5,0
TECHSAT 1B (GO-32),1998-043D,2026-06-19T14:14:07.076544,14.24428772,.0001179,99.0068,163.4125,158.0468,202.0760,0,U,25397,999,45167,.32334137E-4,.28E-6,0
ISS (ZARYA),1998-067A,2026-06-19T20:01:06.425760,15.49322400,.0004571,51.6328,286.9925,206.3215,153.7542,0,U,25544,999,57216,.16558772E-3,.8787E-4,0
IMAGE,2000-017A,2026-06-11T08:17:58.695072,1.68665984,.7436383,94.2241,315.2958,288.4674,8.8959,0,U,26113,999,16140,.22926E-1,.11E-6,0
CLUSTER II-FM7 (SAMBA),2000-041A,2026-06-21T14:25:43.507200,0.44827446,.90601568,149.9156,51.6296,268.8489,359.5243,0,U,26410,999,2032,0,.47E-4,0
CLUSTER II-FM8 (TANGO),2000-045B,2026-06-17T10:31:03.323424,0.44409350,.90607958,150.1515,52.0898,269.1034,2.6615,0,U,26464,999,2031,0,.13202E-3,0
ODIN,2001-007A,2026-06-19T15:12:54.256320,15.76561957,.00067674,97.3812,211.7344,140.6294,219.5465,0,U,26702,999,38978,.10376008E-2,.167604E-2,0
OMNI-M1,2001-026A,2026-06-16T05:01:03.889056,3.92401638,.0014194,44.8307,245.4893,53.4474,306.7446,0,U,26857,999,20553,0,-.1E-7,0
PCSAT (NO-44),2001-043C,2026-06-19T21:11:55.730688,14.31956919,.00060676,67.0502,237.2987,264.7337,95.3072,0,U,26931,999,29083,.53223939E-4,.6E-6,0
PROBA-1,2001-049B,2026-06-19T23:46:50.983104,15.07498547,.00564595,97.9595,179.6215,112.7181,248.0028,0,U,26958,999,34404,.407711E-4,.569E-5,0
SAUDISAT 1C (SO-50),2002-058C,2026-06-19T20:27:43.384608,14.83051819,.00751619,64.5513,120.7383,261.9782,97.2791,0,U,27607,999,26485,.10488845E-3,.74E-5,0
CORIOLIS,2003-001A,2026-06-19T14:13:54.585696,14.19945392,.00135124,98.7125,177.4411,201.5448,158.5161,0,U,27640,999,21456,.51486909E-4,.66E-6,0
CUTE-1 (CO-55),2003-031E,2026-06-19T13:35:11.395968,14.24336935,.00096891,98.6736,179.0951,171.1603,188.9749,0,U,27844,999,19201,.10623568E-3,.202E-5,0
CUBESAT XI-IV (CO-57),2003-031J,2026-06-19T23:27:32.070528,14.23622052,.00092194,98.6765,179.2116,188.6492,171.4529,0,U,27848,999,19177,.9310277E-4,.169E-5,0
MOZHAETS 4 (RS22),2003-042A,2026-06-19T22:43:59.731968,14.73470830,.00099224,98.3468,355.3836,259.8774,260.9585,0,U,27939,999,21595,.10039274E-3,.598E-5,0
